NORAD_CAT_ID,OBJECT_NAME,OBJECT_TYPE,EPOCH,MEAN_MOTION,ECCENTRICITY,INCLINATION,RA_OF_ASC_NODE,ARG_OF_PERICENTER,MEAN_ANOMALY,BSTAR,MEAN_MOTION_DOT,MEAN_MOTION_DDOT,TLE_LINE0,TLE_LINE1,TLE_LINE2,SEMIMAJOR_AXIS,PERIOD,APOGEE,PERIGEE,DECAYED
52647.0,STARLINK-3846,PAYLOAD,2023-07-03 16:40:20,15.08843703,9.42e-05,53.2185,338.5933,84.3521,275.7579,0.00014573,2.033e-05,0.0,0 STARLINK-3846,1 52647U 22052BB  23184.69467873  .00002033  00000-0  14573-3 0  9994,2 52647  53.2185 338.5933 0000942  84.3521 275.7579 15.08843703 63563,6917.869,95.437,540.386,539.082,0.0
52647.0,STARLINK-3846,PAYLOAD,2023-07-04 10:09:35,15.08838743,0.0001008,53.2181,335.3223,80.8091,279.3015,6.4378e-05,7.37e-06,0.0,0 STARLINK-3846,1 52647U 22052BB  23185.42332314  .00000737  00000-0  64378-4 0  9995,2 52647  53.2181 335.3223 0001008  80.8091 279.3015 15.08838743 63678,6917.884,95.438,540.447,539.052,0.0
52647.0,STARLINK-3846,PAYLOAD,2023-07-04 21:17:16,15.08847547,0.0001075,53.2185,333.2396,90.6119,269.4996,7.6634e-05,9.32e-06,0.0,0 STARLINK-3846,1 52647U 22052BB  23185.88699616  .00000932  00000-0  76634-4 0  9991,2 52647  53.2185 333.2396 0001075  90.6119 269.4996 15.08847547 63742,6917.857,95.437,540.466,538.979,0.0
52647.0,STARLINK-3846,PAYLOAD,2023-07-05 16:21:54,15.08840808,0.0001015,53.2185,329.6725,90.968,269.1428,3.9464e-05,3.4e-06,0.0,0 STARLINK-3846,1 52647U 22052BB  23186.68188208  .00000340  00000-0  39464-4 0  9993,2 52647  53.2185 329.6725 0001015  90.9680 269.1428 15.08840808 63860,6917.878,95.438,540.445,539.041,0.0
52647.0,STARLINK-3846,PAYLOAD,2023-07-06 19:23:27,15.08844784,0.0001086,53.2187,324.6174,90.2843,269.8274,8.4702e-05,1.061e-05,0.0,0 STARLINK-3846,1 52647U 22052BB  23187.80795902  .00001061  00000-0  84702-4 0  9999,2 52647  53.2187 324.6174 0001086  90.2843 269.8274 15.08844784 64030,6917.866,95.437,540.482,538.979,0.0
52647.0,STARLINK-3846,PAYLOAD,2023-07-07 01:45:01,15.08834334,0.0001539,53.2189,323.429,96.9052,263.2116,-3.5352e-05,-8.5e-06,0.0,0 STARLINK-3846,1 52647U 22052BB  23188.07293014 -.00000850  00000-0 -35352-4 0  9990,2 52647  53.2189 323.4290 0001539  96.9052 263.2116 15.08834334 64073,6917.898,95.438,540.827,538.698,0.0
52647.0,STARLINK-3846,PAYLOAD,2023-07-07 17:38:51,15.08849724,8.99e-05,53.2188,320.4544,95.1291,264.9804,0.00015482,2.178e-05,0.0,0 STARLINK-3846,1 52647U 22052BB  23188.73531745  .00002178  00000-0  15482-3 0  9993,2 52647  53.2188 320.4544 0000899  95.1291 264.9804 15.08849724 64177,6917.851,95.437,540.338,539.094,0.0
52647.0,STARLINK-3846,PAYLOAD,2023-07-08 01:35:47,15.08844946,9.39e-05,53.2181,318.9676,89.0687,271.0413,8.7741e-05,1.109e-05,0.0,0 STARLINK-3846,1 52647U 22052BB  23189.06651906  .00001109  00000-0  87741-4 0  9993,2 52647  53.2181 318.9676 0000939  89.0687 271.0413 15.08844946 64226,6917.865,95.437,540.38,539.081,0.0
52647.0,STARLINK-3846,PAYLOAD,2023-07-09 12:34:17,15.08828711,9.62e-05,53.2186,312.4261,79.8204,280.2897,-2.469e-06,-3.27e-06,0.0,0 STARLINK-3846,1 52647U 22052BB  23190.52381759 -.00000327  00000-0 -24690-5 0  9990,2 52647  53.2186 312.4261 0000962  79.8204 280.2897 15.08828711 64442,6917.915,95.438,540.445,539.114,0.0
52647.0,STARLINK-3846,PAYLOAD,2023-07-09 17:20:26,15.08835598,0.0001015,53.2189,311.5335,80.9631,279.1476,-1.555e-05,-5.35e-06,0.0,0 STARLINK-3846,1 52647U 22052BB  23190.72253375 -.00000535  00000-0 -15550-4 0  9999,2 52647  53.2189 311.5335 0001015  80.9631 279.1476 15.08835598 64478,6917.894,95.438,540.461,539.057,0.0
52647.0,STARLINK-3846,PAYLOAD,2023-07-10 10:49:40,15.08840654,0.0001008,53.2186,308.2629,74.5986,285.5117,0.00014786,2.066e-05,0.0,0 STARLINK-3846,1 52647U 22052BB  23191.45116729  .00002066  00000-0  14786-3 0  9999,2 52647  53.2186 308.2629 0001008  74.5986 285.5117 15.08840654 64582,6917.878,95.438,540.441,539.046,0.0
52647.0,STARLINK-3846,PAYLOAD,2023-07-10 17:11:12,15.08852181,9.16e-05,53.2184,307.0733,82.1204,277.9892,0.00017467,2.494e-05,0.0,0 STARLINK-3846,1 52647U 22052BB  23191.71612022  .00002494  00000-0  17467-3 0  9999,2 52647  53.2184 307.0733 0000916  82.1204 277.9892 15.08852181 64626,6917.843,95.437,540.342,539.074,0.0
52647.0,STARLINK-3846,PAYLOAD,2023-07-11 01:08:08,15.088462,9.6e-05,53.2173,305.5871,77.0431,283.0668,0.00017756,2.54e-05,0.0,0 STARLINK-3846,1 52647U 22052BB  23192.04732627  .00002540  00000-0  17756-3 0  9993,2 52647  53.2173 305.5871 0000960  77.0431 283.0668 15.08846200 64673,6917.861,95.437,540.391,539.062,0.0
52647.0,STARLINK-3846,PAYLOAD,2023-07-11 07:29:41,15.08839493,0.0001083,53.2169,304.3988,74.1554,285.9557,0.00023158,3.4e-05,0.0,0 STARLINK-3846,1 52647U 22052BB  23192.31229105  .00003400  00000-0  23158-3 0  9994,2 52647  53.2169 304.3988 0001083  74.1554 285.9557 15.08839493 64714,6917.882,95.438,540.496,538.998,0.0
52647.0,STARLINK-3846,PAYLOAD,2023-07-12 16:52:47,15.08848969,0.0001163,53.2179,298.1535,79.9495,280.1629,8.3985e-05,1.049e-05,0.0,0 STARLINK-3846,1 52647U 22052BB  23193.70332414  .00001049  00000-0  83985-4 0  9998,2 52647  53.2179 298.1535 0001163  79.9495 280.1629 15.08848969 64927,6917.853,95.437,540.523,538.913,0.0
52647.0,STARLINK-3846,PAYLOAD,2023-07-13 13:32:48,15.08838595,0.0001195,53.2181,294.289,97.7282,262.3846,4.9609e-05,5.02e-06,0.0,0 STARLINK-3846,1 52647U 22052BB  23194.56445021  .00000502  00000-0  49609-4 0  9990,2 52647  53.2181 294.2890 0001195  97.7282 262.3846 15.08838595 65050,6917.885,95.438,540.576,538.923,0.0
52647.0,STARLINK-3846,PAYLOAD,2023-07-14 16:34:21,15.08854299,0.0001099,53.2177,289.2316,94.5776,265.5342,0.00034208,5.163e-05,0.0,0 STARLINK-3846,1 52647U 22052BB  23195.69052462  .00005163  00000-0  34208-3 0  9994,2 52647  53.2177 289.2316 0001099  94.5776 265.5342 15.08854299 65222,6917.837,95.437,540.462,538.941,0.0
52647.0,STARLINK-3846,PAYLOAD,2023-07-14 22:55:54,15.08849945,0.0001196,53.2178,288.0398,84.8036,275.3092,0.0003165,4.754e-05,0.0,0 STARLINK-3846,1 52647U 22052BB  23195.95548637  .00004754  00000-0  31650-3 0  9990,2 52647  53.2178 288.0398 0001196  84.8036 275.3092 15.08849945 65266,6917.85,95.437,540.542,538.888,0.0
52647.0,STARLINK-3846,PAYLOAD,2023-07-15 10:03:36,15.08838573,0.0001363,53.218,285.9612,103.323,256.7914,3.7582e-05,3.1e-06,0.0,0 STARLINK-3846,1 52647U 22052BB  23196.41917025  .00000310  00000-0  37582-4 0  9998,2 52647  53.2180 285.9612 0001363 103.3230 256.7914 15.08838573 65332,6917.885,95.438,540.693,538.807,0.0
52647.0,STARLINK-3846,PAYLOAD,2023-07-16 13:05:09,15.08837677,0.0001552,53.2187,280.9075,109.6631,250.4529,-0.00022868,-3.925e-05,0.0,0 STARLINK-3846,1 52647U 22052BB  23197.54525444 -.00003925  00000-0 -22868-3 0  9990,2 52647  53.2187 280.9075 0001552 109.6631 250.4529 15.08837677 65507,6917.887,95.438,540.826,538.679,0.0
52647.0,STARLINK-3846,PAYLOAD,2023-07-17 12:55:56,15.08848674,0.0001179,53.2177,276.4464,89.942,270.1707,0.00020124,2.917e-05,0.0,0 STARLINK-3846,1 52647U 22052BB  23198.53884881  .00002917  00000-0  20124-3 0  9994,2 52647  53.2177 276.4464 0001179  89.9420 270.1707 15.08848674 65651,6917.854,95.437,540.534,538.903,0.0
52647.0,STARLINK-3846,PAYLOAD,2023-07-18 00:03:38,15.08842506,0.0001206,53.2166,274.3656,82.0058,278.1071,0.00022649,3.319e-05,0.0,0 STARLINK-3846,1 52647U 22052BB  23199.00253453  .00003319  00000-0  22649-3 0  9993,2 52647  53.2166 274.3656 0001206  82.0058 278.1071 15.08842506 65729,6917.873,95.437,540.572,538.903,0.0
52647.0,STARLINK-3846,PAYLOAD,2023-07-19 09:26:45,15.08836485,0.0001512,53.2161,268.1222,63.8963,296.2185,-5.1196e-05,-1.103e-05,0.0,0 STARLINK-3846,1 52647U 22052BB  23200.39357994 -.00001103  00000-0 -51196-4 0  9994,2 52647  53.2161 268.1222 0001512  63.8963 296.2185 15.08836485 65935,6917.891,95.438,540.802,538.71,0.0
52647.0,STARLINK-3846,PAYLOAD,2023-07-20 14:03:41,15.08833957,0.0001349,53.2169,262.766,102.237,257.8774,0.0002423,3.57e-05,0.0,0 STARLINK-3846,1 52647U 22052BB  23201.58589580  .00003570  00000-0  24230-3 0  9990,2 52647  53.2169 262.7660 0001349 102.2370 257.8774 15.08833957 66116,6917.899,95.438,540.697,538.831,0.0
52647.0,STARLINK-3846,PAYLOAD,2023-07-21 15:29:51,15.08843841,0.000117,53.2165,258.0078,98.2268,261.8857,0.00015347,2.156e-05,0.0,0 STARLINK-3846,1 52647U 22052BB  23202.64573319  .00002156  00000-0  15347-3 0  9999,2 52647  53.2165 258.0078 0001170  98.2268 261.8857 15.08843841 66272,6917.869,95.437,540.543,538.924,0.0
52647.0,STARLINK-3846,PAYLOAD,2023-07-24 03:54:31,15.08833012,0.0001158,53.2169,246.7087,87.4488,272.6637,7.3033e-05,8.74e-06,0.0,0 STARLINK-3846,1 52647U 22052BB  23205.16286672  .00000874  00000-0  73033-4 0  9994,2 52647  53.2169 246.7087 0001158  87.4488 272.6637 15.08833012 66286,6917.902,95.438,540.568,538.966,0.0
52647.0,STARLINK-3846,PAYLOAD,2023-07-25 11:42:13,15.08854475,0.000113,53.2159,240.7607,79.8774,280.2345,0.00023625,3.476e-05,0.0,0 STARLINK-3846,1 52647U 22052BB  23206.48765169  .00003476  00000-0  23625-3 0  9995,2 52647  53.2159 240.7607 0001130  79.8774 280.2345 15.08854475 66489,6917.836,95.437,540.483,538.919,0.0
52647.0,STARLINK-3846,PAYLOAD,2023-07-26 11:33:01,15.08840408,0.0001166,53.2156,236.3008,80.3264,279.786,0.0001194,1.613e-05,0.0,0 STARLINK-3846,1 52647U 22052BB  23207.48126481  .00001613  00000-0  11940-3 0  9992,2 52647  53.2156 236.3008 0001166  80.3264 279.7860 15.08840408 66635,6917.879,95.438,540.551,538.938,0.0
52647.0,STARLINK-3846,PAYLOAD,2023-07-26 19:29:56,15.08849205,0.0001071,53.215,234.8142,76.5582,283.5529,-7.5389e-05,-1.488e-05,0.0,0 STARLINK-3846,1 52647U 22052BB  23207.81246041 -.00001488  00000-0 -75389-4 0  9994,2 52647  53.2150 234.8142 0001071  76.5582 283.5529 15.08849205 66680,6917.852,95.437,540.458,538.976,0.0
52647.0,STARLINK-3846,PAYLOAD,2023-07-27 08:13:01,15.0884677,0.0001105,53.2151,232.4351,78.1065,282.0051,-4.7121e-05,-1.038e-05,0.0,0 STARLINK-3846,1 52647U 22052BB  23208.34237959 -.00001038  00000-0 -47121-4 0  9995,2 52647  53.2151 232.4351 0001105  78.1065 282.0051 15.08846770 67138,6917.86,95.437,540.489,538.96,0.0
